ONEWEB-0567             
1 55147U 23004H   24227.40429424  .00000059  00000+0  11738-3 0  9993
2 55147  87.9109 109.2543 0001586  93.7073 266.4241 13.18684906 81168
ONEWEB-0569             
1 55148U 23004J   24227.57785143 -.00000194  00000+0 -56652-3 0  9991
2 55148  87.8884  93.8665 0001098 118.0836 242.0404 13.13469757 82013
ONEWEB-0570             
1 55149U 23004K   24227.61927065 -.00000263  00000+0 -70095-3 0  9992
2 55149  87.9114 109.2096 0002491  90.5283 269.6134 13.18684947 81186
ONEWEB-0572             
1 55151U 23004M   24227.48419757  .00000109  00000+0  24675-3 0  9994
2 55151  87.9187 139.6396 0002067  82.4418 277.6948 13.17649239 79024
ONEWEB-0573             
1 55152U 23004N   24227.60662041  .00000099  00000+0  21885-3 0  9993
2 55152  87.9110 109.2367 0002128 106.7735 253.3630 13.18688252 81180
